{
  "type": "FeatureCollection",
  "features": [
    {
      "type": "Feature",
      "properties": {
        "norad_id": 37238,
        "name": "INTELSAT 17 (IS-17)",
        "group": "intelsat",
        "lat": -0.03707321032434199,
        "lon": -27.35388106719148,
        "alt_km": 35776.79476347163,
        "timestamp": "2025-12-26T11:25:44.886691+00:00",
        "meta_object_name": "INTELSAT 17 (IS-17)",
        "meta_object_id": "2010-065B",
        "meta_epoch": "2025-12-26T02:10:38.891424",
        "meta_mean_motion": 1.00271955,
        "meta_eccentricity": 0.0002831,
        "meta_inclination": 0.028,
        "meta_ra_of_asc_node": 73.4658,
        "meta_arg_of_pericenter": 219.704,
        "meta_mean_anomaly": 260.3074,
        "meta_ephemeris_type": 0,
        "meta_classification_type": "U",
        "meta_norad_cat_id": 37238,
        "meta_element_set_no": 999,
        "meta_rev_at_epoch": 5151,
        "meta_bstar": 0,
        "meta_mean_motion_dot": 0,
        "meta_mean_motion_ddot": 0,
        "tle_line1": "1 37238U 10065B   25360.09072791  .00000000  00000+0  00000+0 0  9994",
        "tle_line2": "2 37238   0.0280  73.4658 0002831 219.7040 260.3074  1.00271955 51519"
      },
      "geometry": {
        "type": "Point",
        "coordinates": [
          -27.35388106719148,
          -0.03707321032434199
        ]
      }
    },
    {
      "type": "Feature",
      "properties": {
        "norad_id": 37392,
        "name": "INTELSAT 28 (IS-28)",
        "group": "intelsat",
        "lat": 0.6659809070274766,
        "lon": -125.07205878219396,
        "alt_km": 35773.4405195085,
        "timestamp": "2025-12-26T11:25:44.886701+00:00",
        "meta_object_name": "INTELSAT 28 (IS-28)",
        "meta_object_id": "2011-016A",
        "meta_epoch": "2025-12-26T00:24:38.640096",
        "meta_mean_motion": 1.00271568,
        "meta_eccentricity": 0.0003797,
        "meta_inclination": 1.3569,
        "meta_ra_of_asc_node": 84.9113,
        "meta_arg_of_pericenter": 188.0675,
        "meta_mean_anomaly": 156.2464,
        "meta_ephemeris_type": 0,
        "meta_classification_type": "U",
        "meta_norad_cat_id": 37392,
        "meta_element_set_no": 999,
        "meta_rev_at_epoch": 5154,
        "meta_bstar": 0,
        "meta_mean_motion_dot": -2.03e-06,
        "meta_mean_motion_ddot": 0,
        "tle_line1": "1 37392U 11016A   25360.01711389 -.00000203  00000+0  00000+0 0  9993",
        "tle_line2": "2 37392   1.3569  84.9113 0003797 188.0675 156.2464  1.00271568 51540"
      },
      "geometry": {
        "type": "Point",
        "coordinates": [
          -125.07205878219396,
          0.6659809070274766
        ]
      }
    },
    {
      "type": "Feature",
      "properties": {
        "norad_id": 37834,
        "name": "INTELSAT 18 (IS-18)",
        "group": "intelsat",
        "lat": 0.019939472202331512,
        "lon": 86.65730323831335,
        "alt_km": 35793.50648565747,
        "timestamp": "2025-12-26T11:25:44.886712+00:00",
        "meta_object_name": "INTELSAT 18 (IS-18)",
        "meta_object_id": "2011-056A",
        "meta_epoch": "2025-12-26T03:40:38.798112",
        "meta_mean_motion": 1.00271849,
        "meta_eccentricity": 0.0001926,
        "meta_inclination": 0.0171,
        "meta_ra_of_asc_node": 297.462,
        "meta_arg_of_pericenter": 352.9016,
        "meta_mean_anomaly": 39.6981,
        "meta_ephemeris_type": 0,
        "meta_classification_type": "U",
        "meta_norad_cat_id": 37834,
        "meta_element_set_no": 999,
        "meta_rev_at_epoch": 5207,
        "meta_bstar": 0,
        "meta_mean_motion_dot": 7.5e-07,
        "meta_mean_motion_ddot": 0,
        "tle_line1": "1 37834U 11056A   25360.15322683  .00000075  00000+0  00000+0 0  9994",
        "tle_line2": "2 37834   0.0171 297.4620 0001926 352.9016  39.6981  1.00271849 52072"
      },
      "geometry": {
        "type": "Point",
        "coordinates": [
          86.65730323831335,
          0.019939472202331512
        ]
      }
    },
    {
      "type": "Feature",
      "properties": {
        "norad_id": 38098,
        "name": "INTELSAT 22 (IS-22)",
        "group": "intelsat",
        "lat": -0.04136860547480068,
        "lon": -21.250917928648363,
        "alt_km": 35780.052619489,
        "timestamp": "2025-12-26T11:25:44.886722+00:00",
        "meta_object_name": "INTELSAT 22 (IS-22)",
        "meta_object_id": "2012-011A",
        "meta_epoch": "2025-12-26T02:10:38.891424",
        "meta_mean_motion": 1.00270604,
        "meta_eccentricity": 0.0001954,
        "meta_inclination": 0.032,
        "meta_ra_of_asc_node": 51.6122,
        "meta_arg_of_pericenter": 247.6605,
        "meta_mean_anomaly": 260.3158,
        "meta_ephemeris_type": 0,
        "meta_classification_type": "U",
        "meta_norad_cat_id": 38098,
        "meta_element_set_no": 999,
        "meta_rev_at_epoch": 545,
        "meta_bstar": 0,
        "meta_mean_motion_dot": 0,
        "meta_mean_motion_ddot": 0,
        "tle_line1": "1 38098U 12011A   25360.09072791  .00000000  00000+0  00000+0 0  9992",
        "tle_line2": "2 38098   0.0320  51.6122 0001954 247.6605 260.3158  1.00270604  5450"
      },
      "geometry": {
        "type": "Point",
        "coordinates": [
          -21.250917928648363,
          -0.04136860547480068
        ]
      }
    },
    {
      "type": "Feature",
      "properties": {
        "norad_id": 38356,
        "name": "INTELSAT 19 (IS-19)",
        "group": "intelsat",
        "lat": 0.025222678878009296,
        "lon": 72.670933172303,
        "alt_km": 35797.978382762536,
        "timestamp": "2025-12-26T11:25:44.886733+00:00",
        "meta_object_name": "INTELSAT 19 (IS-19)",
        "meta_object_id": "2012-030A",
        "meta_epoch": "2025-12-25T22:24:59.206176",
        "meta_mean_motion": 1.00271988,
        "meta_eccentricity": 0.0002992,
        "meta_inclination": 0.0098,
        "meta_ra_of_asc_node": 337.2773,
        "meta_arg_of_pericenter": 294.5266,
        "meta_mean_anomaly": 325.1376,
        "meta_ephemeris_type": 0,
        "meta_classification_type": "U",
        "meta_norad_cat_id": 38356,
        "meta_element_set_no": 999,
        "meta_rev_at_epoch": 4871,
        "meta_bstar": 0,
        "meta_mean_motion_dot": -3.5e-07,
        "meta_mean_motion_ddot": 0,
        "tle_line1": "1 38356U 12030A   25359.93401859 -.00000035  00000+0  00000+0 0  9991",
        "tle_line2": "2 38356   0.0098 337.2773 0002992 294.5266 325.1376  1.00271988 48715"
      },
      "geometry": {
        "type": "Point",
        "coordinates": [
          72.670933172303,
          0.025222678878009296
        ]
      }
    },
    {
      "type": "Feature",
      "properties": {
        "norad_id": 38740,
        "name": "INTELSAT 20 (IS-20)",
        "group": "intelsat",
        "lat": -0.023143888011022833,
        "lon": -24.820803827936412,
        "alt_km": 35791.128525391,
        "timestamp": "2025-12-26T11:25:44.886743+00:00",
        "meta_object_name": "INTELSAT 20 (IS-20)",
        "meta_object_id": "2012-043A",
        "meta_epoch": "2025-12-26T02:10:38.891424",
        "meta_mean_motion": 1.00277669,
        "meta_eccentricity": 0.0001957,
        "meta_inclination": 0.0128,
        "meta_ra_of_asc_node": 61.9497,
        "meta_arg_of_pericenter": 128.5096,
        "meta_mean_anomaly": 5.5509,
        "meta_ephemeris_type": 0,
        "meta_classification_type": "U",
        "meta_norad_cat_id": 38740,
        "meta_element_set_no": 999,
        "meta_rev_at_epoch": 4901,
        "meta_bstar": 0,
        "meta_mean_motion_dot": -4e-08,
        "meta_mean_motion_ddot": 0,
        "tle_line1": "1 38740U 12043A   25360.09072791 -.00000004  00000+0  00000+0 0  9996",
        "tle_line2": "2 38740   0.0128  61.9497 0001957 128.5096   5.5509  1.00277669 49010"
      },
      "geometry": {
        "type": "Point",
        "coordinates": [
          -24.820803827936412,
          -0.023143888011022833
        ]
      }
    },
    {
      "type": "Feature",
      "properties": {
        "norad_id": 38749,
        "name": "INTELSAT 21 (IS-21)",
        "group": "intelsat",
        "lat": -0.02204799990583463,
        "lon": -151.3501618513903,
        "alt_km": 35782.183541741164,
        "timestamp": "2025-12-26T11:25:44.886753+00:00",
        "meta_object_name": "INTELSAT 21 (IS-21)",
        "meta_object_id": "2012-045A",
        "meta_epoch": "2025-12-26T02:29:55.682016",
        "meta_mean_motion": 1.00272005,
        "meta_eccentricity": 0.000174,
        "meta_inclination": 0.0178,
        "meta_ra_of_asc_node": 332.2031,
        "meta_arg_of_pericenter": 294.553,
        "meta_mean_anomaly": 167.5959,
        "meta_ephemeris_type": 0,
        "meta_classification_type": "U",
        "meta_norad_cat_id": 38749,
        "meta_element_set_no": 999,
        "meta_rev_at_epoch": 4878,
        "meta_bstar": 0,
        "meta_mean_motion_dot": -2.63e-06,
        "meta_mean_motion_ddot": 0,
        "tle_line1": "1 38749U 12045A   25360.10411669 -.00000263  00000+0  00000+0 0  9997",
        "tle_line2": "2 38749   0.0178 332.2031 0001740 294.5530 167.5959  1.00272005 48789"
      },
      "geometry": {
        "type": "Point",
        "coordinates": [
          -151.3501618513903,
          -0.02204799990583463
        ]
      }
    }
  ]
}